[{"name":"BEIDOU-2 G3","l1":"1 36590U 10024A   26183.79187919 -.00000127  00000+0  00000+0 0  9990","l2":"2 36590   4.5509  61.4496 0007930 357.7433 226.3765  1.00270857 58924","cat":"geostationary"},{"name":"BADR-5","l1":"1 36592U 10025A   26183.77051073  .00000164  00000+0  00000+0 0  9992","l2":"2 36592   0.0534 116.8941 0004414  71.9432  39.8148  1.00270154 53379","cat":"geostationary"},{"name":"COMS 1","l1":"1 36744U 10032A   26183.73581844 -.00000089  00000+0  00000+0 0  9996","l2":"2 36744   4.8426  75.1736 0011777  13.9183 108.0967  0.99169036 51243","cat":"geostationary"},{"name":"ARABSAT-5A","l1":"1 36745U 10032B   26183.77051074  .00000164  00000+0  00000+0 0  9991","l2":"2 36745   0.0835  58.6129 0005769  58.2443 111.8428  1.00274764 58804","cat":"geostationary"},{"name":"ECHOSTAR 15","l1":"1 36792U 10034A   26183.63037324  .00000010  00000+0  00000+0 0  9992","l2":"2 36792   0.0361 284.5969 0002621 149.6466 314.5690  1.00270012 58474","cat":"geostationary"},{"name":"BEIDOU-2 IGSO-1","l1":"1 36828U 10036A   26183.88383003 -.00000085  00000+0  00000+0 0  9992","l2":"2 36828  54.3058 162.8184 0058835 225.0696 318.6397  1.00267645 58251","cat":"geostationary"},{"name":"NILESAT 201","l1":"1 36830U 10037A   26183.72379264  .00000000  00000+0  00000+0 0  9999","l2":"2 36830   0.0029 301.9161 0005503 187.4736  44.9449  1.00270006 58534","cat":"geostationary"},{"name":"RASCOM-QAF 1R","l1":"1 36831U 10037B   26183.72578597  .00000029  00000+0  00000+0 0  9991","l2":"2 36831   0.0084 102.4353 0006560 351.0196  91.4752  1.00271382 58460","cat":"geostationary"},{"name":"AEHF-1 (USA 214)","l1":"1 36868U 10039A   26183.74934242  .00000154  00000+0  00000+0 0  9997","l2":"2 36868   8.2568  67.8419 0004102  30.6873 121.9724  1.00269375 53817","cat":"geostationary"},{"name":"XM-5","l1":"1 37185U 10053A   26183.70237648 -.00000012  00000+0  00000+0 0  9992","l2":"2 37185   0.0671 268.1705 0002374 288.4536 221.7706  1.00271300 57631","cat":"geostationary"},{"name":"BSAT-3B","l1":"1 37207U 10056B   26183.75814377 -.00000340  00000+0  00000+0 0  9999","l2":"2 37207   0.0610 233.0675 0002332 294.2116 136.2801  1.00279940 52256","cat":"geostationary"},{"name":"BEIDOU-2 G4","l1":"1 37210U 10057A   26183.61425317 -.00000104  00000+0  00000+0 0  9999","l2":"2 37210   3.6834  68.8579 0004849 189.1174  43.7842  1.00271472 57440","cat":"geostationary"},{"name":"SKYTERRA 1","l1":"1 37218U 10061A   26183.70480316 -.00000110  00000+0  00000+0 0  9999","l2":"2 37218   5.1562  50.8263 0002334  37.9000 344.4335  1.00270534 57355","cat":"geostationary"},{"name":"HYLAS 1","l1":"1 37237U 10065A   26181.30407082  .00000096  00000+0  00000+0 0  9999","l2":"2 37237   5.6751  72.8623 0001043 340.0885 348.6881  1.00272596  7010","cat":"geostationary"},{"name":"INTELSAT 17 (IS-17)","l1":"1 37238U 10065B   26183.78057133  .00000000  00000+0  00000+0 0  9997","l2":"2 37238   0.0318  86.1768 0002652  35.8918 145.7291  1.00271706 53407","cat":"geostationary"},{"name":"BEIDOU-2 IGSO-2","l1":"1 37256U 10068A   26183.67533637 -.00000187  00000+0  00000+0 0  9993","l2":"2 37256  47.5191 271.6399 0056590 213.9221 146.5191  1.00278505 56954","cat":"geostationary"},{"name":"EUTELSAT KA-SAT 9A","l1":"1 37258U 10069A   26183.58434090  .00000072  00000+0  00000+0 0  9991","l2":"2 37258   0.0605  12.7072 0003862 123.3444   3.9181  1.00271458 44162","cat":"geostationary"},{"name":"HISPASAT 30W-5","l1":"1 37264U 10070A   26183.71919928 -.00000205  00000+0  00000+0 0  9992","l2":"2 37264   0.0400 107.2023 0005830   7.2049  35.2635  1.00271494 53348","cat":"geostationary"},{"name":"KOREASAT 6","l1":"1 37265U 10070B   26183.68556308 -.00000101  00000+0  00000+0 0  9993","l2":"2 37265   0.0148  63.4012 0002675  49.5354 214.4733  1.00272153 56921","cat":"geostationary"},{"name":"BEIDOU-2 IGSO-3","l1":"1 37384U 11013A   26183.55754922 -.00000159  00000+0  00000+0 0  9994","l2":"2 37384  62.4287  40.0069 0035256 183.9703   4.4649  1.00264616 55819","cat":"geostationary"},{"name":"INTELSAT 28 (IS-28)","l1":"1 37392U 11016A   26183.71885262 -.00000215  00000+0  00000+0 0  9999","l2":"2 37392   1.8440  82.4432 0003931  22.2819  43.0738  1.00272167 53443","cat":"geostationary"},{"name":"YAHSAT 1A","l1":"1 37393U 11016B   26183.76845293  .00000000  00000+0  00000+0 0  9996","l2":"2 37393   0.0185  40.6280 0003400  71.1376 138.1848  1.00269059 42565","cat":"geostationary"},{"name":"SBIRS GEO-1 (USA 230)","l1":"1 37481U 11019A   26183.76835265  .00000108  00000+0  00000+0 0  9994","l2":"2 37481   4.5699  53.1143 0001915  40.7949 155.2944  1.00272295 55552","cat":"geostationary"},{"name":"TELSTAR 14R","l1":"1 37602U 11021A   26183.70633247 -.00000269  00000+0  00000+0 0  9991","l2":"2 37602   0.0552  82.5875 0002211 354.5413  34.9041  1.00272100 55990","cat":"geostationary"},{"name":"GSAT-8","l1":"1 37605U 11022A   26183.73611102  .00000094  00000+0  00000+0 0  9999","l2":"2 37605   2.1688  81.6457 0001952 172.9445 346.2785  1.00272277 53379","cat":"geostationary"},{"name":"ST-2","l1":"1 37606U 11022B   26183.79930461 -.00000201  00000+0  00000+0 0  9999","l2":"2 37606   0.0173  48.3756 0001743  63.8831 184.3507  1.00271898 55433","cat":"geostationary"},{"name":"ZHONGXING-10","l1":"1 37677U 11026A   26183.79700839 -.00000179  00000+0  00000+0 0  9999","l2":"2 37677   1.0857  84.0373 0003811  11.2872 197.9654  1.00271908 55157","cat":"geostationary"},{"name":"SES-3","l1":"1 37748U 11035A   26183.70471649 -.00000092  00000+0  00000+0 0  9997","l2":"2 37748   1.3646  82.9319 0002384  10.4088 338.1040  1.00272268 54748","cat":"geostationary"},{"name":"KAZSAT-2","l1":"1 37749U 11035B   26183.72329784 -.00000187  00000+0  00000+0 0  9997","l2":"2 37749   0.0156 111.0324 0001837  45.6677 110.9527  1.00272515 53556","cat":"geostationary"},{"name":"BEIDOU-2 IGSO-4","l1":"1 37763U 11038A   26181.94400016  .00000017  00000+0  00000+0 0  9997","l2":"2 37763  54.6040 165.5504 0159650 231.3791 315.8344  1.00282911 54781","cat":"geostationary"},{"name":"ASTRA 1N","l1":"1 37775U 11041A   26183.58642093  .00000130  00000+0  00000+0 0  9995","l2":"2 37775   0.0898  44.2622 0005880  55.7608  50.8904  1.00272787 44680","cat":"geostationary"},{"name":"BSAT-3C (JCSAT-110R)","l1":"1 37776U 11041B   26183.75814375 -.00000340  00000+0  00000+0 0  9993","l2":"2 37776   0.0285 313.3428 0000721 191.5564 158.7716  1.00272534 50624","cat":"geostationary"}]